{
  "norad_id": 54070,
  "name": "STARLINK-5181",
  "history": [
    {
      "epoch": "2026-03-28T17:39:59.510016Z",
      "apogee_km": 540.4236570886533,
      "perigee_km": 538.9287176588623,
      "latitude_deg": 5.042964632676151e-06,
      "longitude_deg": 167.16327085802425,
      "height_km": 540.5604361652067,
      "semi_major_axis_km": 6917.8131873737575,
      "eccentricity": 0.00010805,
      "inclination_deg": 53.2173,
      "raan_deg": 258.3135,
      "arg_perigee_deg": 89.0926,
      "mean_anomaly_deg": 271.019,
      "mean_motion_rev_day": 15.08861986
    }
  ]
}