{"fetched_at":"2026-03-30T06:02:59Z","count":15439,"tles":[{"name":"STARLINK-5181","line1":"1 54070U 22136V   26087.73610544  .00002412  00000+0  16947-3 0  9991","line2":"2 54070  53.2173 258.3135 0001080  89.0926 271.0190 15.08861986189728","category":"Starlink"}]}